CELESTIS-02             
1 25160U 98007D   15080.20951381  .00000076  00000-0  91849-4 0  9999
2 25160 107.9460 348.5433 0064008 323.9805 198.7466 14.21337908887182
CELESTIS-03             
1 26034U 99070C   15081.20717614  .00009034  00000-0  76653-3 0  9999
2 26034  98.2388 205.4109 0011405  22.2530 337.9183 14.98126833822530
